     3.00           N: GNSS NAV DATA    E: Galileo          RINEX VERSION / TYPE
PREC2NAV                                20121215 063340 UTC PGM / RUN BY / DATE 
SOURCE: data/tum%W%D.sp3                                    COMMENT             
                                                            END OF HEADER       
E11 2012 12  6  0  0  0 -.117683303360E-03  .826523025641E-10  .000000000000E+00
      .100000000000E+01 -.111750277689E+03  .326178538338E-08 -.195612827435E+01
     -.511912965735E-05  .867113477919E-04  .860966563797E-05  .544061691341E+04
      .345600000000E+06  .473017504006E-07  .821351860244E+00  .189775409480E-06
      .956639880052E+00  .152213422875E+03  .146059386965E+01 -.586215304250E-08
     -.180560173161E-09  .000000000000E+00  .171700000000E+04  .000000000000E+00
      .240000000000E+01  .000000000000E+00  .000000000000E+00  .000000000000E+00
      .349200000000E+06  .000000000000E+00
E12 2012 12  6  0  0  0  .664589769680E-03  .851077512821E-10  .000000000000E+00
      .100000000000E+01 -.110393449270E+03  .334081220574E-08  .269680522749E+01
     -.499660282220E-05  .772894074379E-04  .957718326022E-05  .544060881468E+04
      .345600000000E+06 -.216769136497E-06  .821324108877E+00 -.210245055077E-06
      .956651180621E+00  .131073155564E+03 -.248800358865E+01 -.595041835240E-08
     -.323316963062E-10  .000000000000E+00  .171700000000E+04  .000000000000E+00
      .240000000000E+01  .000000000000E+00  .000000000000E+00  .000000000000E+00
      .349200000000E+06  .000000000000E+00
E11 2012 12  6  2  0  0 -.117088834000E-03  .825096820513E-10  .000000000000E+00
      .200000000000E+01 -.110954897817E+03  .322428424518E-08 -.109735332277E+01
     -.508462795747E-05  .864939250407E-04  .959945564038E-05  .544061083695E+04
      .352800000000E+06  .868632809917E-07  .821310220298E+00  .602206612595E-08
      .956639917454E+00  .131336067757E+03  .149444381455E+01 -.568461870531E-08
     -.121151220122E-09  .000000000000E+00  .171700000000E+04  .000000000000E+00
      .240000000000E+01  .000000000000E+00  .000000000000E+00  .000000000000E+00
      .356400000000E+06  .000000000000E+00
E12 2012 12  6  2  0  0  .665202121520E-03  .850147512821E-10  .000000000000E+00
      .200000000000E+01 -.100008351860E+03  .307922173089E-08 -.268710893754E+01
     -.461479292449E-05  .760735440873E-04  .982612108470E-05  .544061131862E+04
      .352800000000E+06  .125978818396E-07  .821284475772E+00  .707676654980E-07
      .956652283874E+00  .126332420443E+03 -.249464856780E+01 -.559331648447E-08
     -.138039355395E-09  .000000000000E+00  .171700000000E+04  .000000000000E+00
      .240000000000E+01  .000000000000E+00  .000000000000E+00  .000000000000E+00
      .356400000000E+06  .000000000000E+00
E11 2012 12  6  4  0  0 -.116494837520E-03  .824891846154E-10  .000000000000E+00
      .300000000000E+01 -.975013998327E+02  .311306542416E-08 -.193196356493E+00
     -.453675402618E-05  .881430729923E-04  .980306113499E-05  .544061479517E+04
      .360000000000E+06 -.728406341402E-08  .821270201159E+00  .645802488434E-07
      .956639154268E+00  .127058127660E+03  .148291167891E+01 -.560477735985E-08
     -.197523771672E-09  .000000000000E+00  .171700000000E+04  .000000000000E+00
      .240000000000E+01  .000000000000E+00  .000000000000E+00  .000000000000E+00
      .363600000000E+06  .000000000000E+00
E12 2012 12  6  4  0  0  .665814171080E-03  .849928230769E-10  .000000000000E+00
      .300000000000E+01 -.921356922664E+02  .315962041298E-08 -.181731165378E+01
     -.428620699963E-05  .767333112478E-04  .938908135624E-05  .544060765266E+04
      .360000000000E+06 -.741098483078E-08  .821244841067E+00 -.160008714846E-07
      .956650984889E+00  .139217847563E+03 -.247182078896E+01 -.558651206003E-08
     -.221576077211E-09  .000000000000E+00  .171700000000E+04  .000000000000E+00
      .240000000000E+01  .000000000000E+00  .000000000000E+00  .000000000000E+00
      .363600000000E+06  .000000000000E+00
E11 2012 12  6  6  0  0 -.115901078600E-03  .824442102564E-10  .000000000000E+00
      .400000000000E+01 -.869035203060E+02  .321364138245E-08  .710965063168E+00
     -.410787415265E-05  .856218074904E-04  .915551196596E-05  .544060921764E+04
      .367200000000E+06 -.516482653452E-08  .821230200172E+00  .841768663415E-08
      .956637485082E+00  .143568218012E+03  .147137491553E+01 -.560660323719E-08
     -.248004010936E-09  .000000000000E+00  .171700000000E+04  .000000000000E+00
      .240000000000E+01  .000000000000E+00  .000000000000E+00  .000000000000E+00
      .370800000000E+06  .000000000000E+00
E12 2012 12  6  6  0  0  .666426037440E-03  .849971051282E-10  .000000000000E+00
      .400000000000E+01 -.873388847709E+02  .324523726690E-08 -.932257355010E+00
     -.424971448144E-05  .772573486405E-04  .898415835919E-05  .544060668051E+04
      .367200000000E+06  .181990137326E-07  .821204727859E+00  .230619803995E-07
      .956649059234E+00  .147574397561E+03 -.246424641351E+01 -.562920002177E-08
     -.252057863416E-09  .000000000000E+00  .171700000000E+04  .000000000000E+00
      .240000000000E+01  .000000000000E+00  .000000000000E+00  .000000000000E+00
      .370800000000E+06  .000000000000E+00
E11 2012 12  6  8  0  0 -.115307605880E-03  .824307205128E-10  .000000000000E+00
      .500000000000E+01 -.882870132674E+02  .325297237090E-08  .159148160702E+01
     -.431823890086E-05  .854979871500E-04  .860368607142E-05  .544061107755E+04
      .374400000000E+06 -.213402635039E-07  .821189847162E+00  .289175493512E-07
      .956635548884E+00  .153410033117E+03  .148348575039E+01 -.563154230533E-08
     -.254974633171E-09  .000000000000E+00  .171700000000E+04  .000000000000E+00
      .240000000000E+01  .000000000000E+00  .000000000000E+00  .000000000000E+00
      .378000000000E+06  .000000000000E+00
E12 2012 12  6  8  0  0  .667038251600E-03  .850586923077E-10  .000000000000E+00
      .500000000000E+01 -.843449966095E+02  .330013207697E-08 -.211276412787E-01
     -.401108414522E-05  .794484138544E-04  .791746739624E-05  .544061212047E+04
      .374400000000E+06 -.561248851209E-07  .821163701956E+00 -.306222943350E-07
      .956646763988E+00  .165920262980E+03 -.248274904494E+01 -.572552860411E-08
     -.235745247107E-09  .000000000000E+00  .171700000000E+04  .000000000000E+00
      .240000000000E+01  .000000000000E+00  .000000000000E+00  .000000000000E+00
      .378000000000E+06  .000000000000E+00
E11 2012 12  6 10  0  0 -.114713798680E-03  .825197102564E-10  .000000000000E+00
      .600000000000E+01 -.839636499028E+02  .333472832213E-08  .246358409221E+01
     -.395995906532E-05  .850719811612E-04  .785697247992E-05  .544061474266E+04
      .381600000000E+06 -.585530343834E-07  .821148541383E+00 -.750279272352E-07
      .956633234090E+00  .166110516638E+03 -.477917655412E+01 -.574464670018E-08
     -.215531927187E-09  .000000000000E+00  .171700000000E+04  .000000000000E+00
      .240000000000E+01  .000000000000E+00  .000000000000E+00  .000000000000E+00
      .385200000000E+06  .000000000000E+00
E12 2012 12  6 10  0  0  .667651029920E-03  .851410384615E-10  .000000000000E+00
      .600000000000E+01 -.937642477614E+02  .343166524592E-08  .882273907624E+00
     -.426029992407E-05  .778902725290E-04  .764897869858E-05  .544060846077E+04
      .381600000000E+06  .333290733204E-07  .821121717570E+00 -.315383737253E-07
      .956645124331E+00  .174410046930E+03 -.249352280011E+01 -.577588071102E-08
     -.164310936879E-09  .000000000000E+00  .171700000000E+04  .000000000000E+00
      .240000000000E+01  .000000000000E+00  .000000000000E+00  .000000000000E+00
      .385200000000E+06  .000000000000E+00
E11 2012 12  6 12  0  0 -.114119516720E-03  .825596923077E-10  .000000000000E+00
      .700000000000E+01 -.928954184749E+02  .347807422171E-08 -.292082301314E+01
     -.421911142213E-05  .870174501049E-04  .755801294540E-05  .544061057733E+04
      .388800000000E+06  .364732369007E-07  .821106375089E+00 -.303735520416E-07
      .956631876444E+00  .177342965489E+03  .149785777615E+01 -.578535632053E-08
     -.130477931376E-09  .000000000000E+00  .171700000000E+04  .000000000000E+00
      .240000000000E+01  .000000000000E+00  .000000000000E+00  .000000000000E+00
      .392400000000E+06  .000000000000E+00
E12 2012 12  6 12  0  0  .668264201320E-03  .851750179487E-10  .000000000000E+00
      .700000000000E+01 -.101959123057E+03  .342882356763E-08  .176063645496E+01
     -.468269446695E-05  .778988308956E-04  .785371112727E-05  .544061069339E+04
      .388800000000E+06  .227332428582E-07  .821080090188E+00 -.201925688914E-07
      .956643992718E+00  .171936002595E+03 -.247925649715E+01 -.577323594980E-08
     -.155224024829E-09  .000000000000E+00  .171700000000E+04  .000000000000E+00
      .240000000000E+01  .000000000000E+00  .000000000000E+00  .000000000000E+00
      .392400000000E+06  .000000000000E+00
E11 2012 12  6 14  0  0 -.113524936120E-03  .825830923077E-10  .000000000000E+00
      .800000000000E+01 -.102837980843E+03  .346402002147E-08 -.201710346779E+01
     -.471143851595E-05  .859540919964E-04  .773911227884E-05  .544061352839E+04
      .396000000000E+06  .387239530954E-07  .821064760045E+00 -.114651066199E-07
      .956630896895E+00  .174725513460E+03  .148676585340E+01 -.579601805966E-08
     -.134776294704E-09  .000000000000E+00  .171700000000E+04  .000000000000E+00
      .240000000000E+01  .000000000000E+00  .000000000000E+00  .000000000000E+00
      .399600000000E+06  .000000000000E+00
